CCSDS_OMM_VERS = 2.0
CREATION_DATE  = 
ORIGINATOR     = 

OBJECT_NAME    = ALOS (DAICHI)
OBJECT_ID      = 2006-002A
CENTER_NAME    = EARTH
REF_FRAME      = TEME
TIME_SYSTEM    = UTC
MEAN_ELEMENT_THEORY = SGP/SGP4

EPOCH          = 2025-12-09T20:03:12.583584
MEAN_MOTION    = 14.69474140
ECCENTRICITY   = .0001017
INCLINATION    = 98.1091
RA_OF_ASC_NODE = 295.3432
ARG_OF_PERICENTER = 112.9419
MEAN_ANOMALY   = 247.1894

EPHEMERIS_TYPE = 0
CLASSIFICATION_TYPE = U
NORAD_CAT_ID   = 28931
ELEMENT_SET_NO = 999
REV_AT_EPOCH   = 6028
BSTAR          = .43701E-3
MEAN_MOTION_DOT = .2541E-4
MEAN_MOTION_DDOT = 0

CCSDS_OMM_VERS = 2.0
CREATION_DATE  = 
ORIGINATOR     = 

OBJECT_NAME    = H-2A R/B
OBJECT_ID      = 2006-002B
CENTER_NAME    = EARTH
REF_FRAME      = TEME
TIME_SYSTEM    = UTC
MEAN_ELEMENT_THEORY = SGP/SGP4

EPOCH          = 2025-12-09T19:29:40.465824
MEAN_MOTION    = 15.14472983
ECCENTRICITY   = .0054512
INCLINATION    = 98.2317
RA_OF_ASC_NODE = 118.3217
ARG_OF_PERICENTER = 186.3408
MEAN_ANOMALY   = 173.7138

EPHEMERIS_TYPE = 0
CLASSIFICATION_TYPE = U
NORAD_CAT_ID   = 28932
ELEMENT_SET_NO = 999
REV_AT_EPOCH   = 8082
BSTAR          = .83747E-3
MEAN_MOTION_DOT = .15932E-3
MEAN_MOTION_DDOT = 0

CCSDS_OMM_VERS = 2.0
CREATION_DATE  = 
ORIGINATOR     = 

OBJECT_NAME    = RESURS-DK 1
OBJECT_ID      = 2006-021A
CENTER_NAME    = EARTH
REF_FRAME      = TEME
TIME_SYSTEM    = UTC
MEAN_ELEMENT_THEORY = SGP/SGP4

EPOCH          = 2025-12-09T18:53:58.310016
MEAN_MOTION    = 15.12136626
ECCENTRICITY   = .0007519
INCLINATION    = 69.9336
RA_OF_ASC_NODE = 109.4675
ARG_OF_PERICENTER = 261.9580
MEAN_ANOMALY   = 98.0733

EPHEMERIS_TYPE = 0
CLASSIFICATION_TYPE = U
NORAD_CAT_ID   = 29228
ELEMENT_SET_NO = 999
REV_AT_EPOCH   = 7393
BSTAR          = .27732E-3
MEAN_MOTION_DOT = .4688E-4
MEAN_MOTION_DDOT = 0

CCSDS_OMM_VERS = 2.0
CREATION_DATE  = 
ORIGINATOR     = 

OBJECT_NAME    = CZ-4B R/B
OBJECT_ID      = 2006-046C
CENTER_NAME    = EARTH
REF_FRAME      = TEME
TIME_SYSTEM    = UTC
MEAN_ELEMENT_THEORY = SGP/SGP4

EPOCH          = 2025-12-10T03:05:15.790272
MEAN_MOTION    = 15.15828586
ECCENTRICITY   = .0033101
INCLINATION    = 97.5735
RA_OF_ASC_NODE = 24.2736
ARG_OF_PERICENTER = 215.8149
MEAN_ANOMALY   = 144.0864

EPHEMERIS_TYPE = 0
CLASSIFICATION_TYPE = U
NORAD_CAT_ID   = 29507
ELEMENT_SET_NO = 999
REV_AT_EPOCH   = 4647
BSTAR          = .39756E-3
MEAN_MOTION_DOT = .7637E-4
MEAN_MOTION_DDOT = 0

CCSDS_OMM_VERS = 2.0
CREATION_DATE  = 
ORIGINATOR     = 

OBJECT_NAME    = CZ-2C R/B
OBJECT_ID      = 2007-010B
CENTER_NAME    = EARTH
REF_FRAME      = TEME
TIME_SYSTEM    = UTC
MEAN_ELEMENT_THEORY = SGP/SGP4

EPOCH          = 2025-12-10T04:22:40.283616
MEAN_MOTION    = 14.20208381
ECCENTRICITY   = .0058835
INCLINATION    = 98.3974
RA_OF_ASC_NODE = 96.9620
ARG_OF_PERICENTER = 193.4541
MEAN_ANOMALY   = 166.5070

EPHEMERIS_TYPE = 0
CLASSIFICATION_TYPE = U
NORAD_CAT_ID   = 31114
ELEMENT_SET_NO = 999
REV_AT_EPOCH   = 96701
BSTAR          = .15241E-3
MEAN_MOTION_DOT = .29E-5
MEAN_MOTION_DDOT = 0

CCSDS_OMM_VERS = 2.0
CREATION_DATE  = 
ORIGINATOR     = 

OBJECT_NAME    = COSMO-SKYMED 1
OBJECT_ID      = 2007-023A
CENTER_NAME    = EARTH
REF_FRAME      = TEME
TIME_SYSTEM    = UTC
MEAN_ELEMENT_THEORY = SGP/SGP4

EPOCH          = 2025-12-10T04:18:01.366272
MEAN_MOTION    = 14.95732222
ECCENTRICITY   = .0001048
INCLINATION    = 97.8835
RA_OF_ASC_NODE = 169.5618
ARG_OF_PERICENTER = 84.7092
MEAN_ANOMALY   = 275.4248

EPHEMERIS_TYPE = 0
CLASSIFICATION_TYPE = U
NORAD_CAT_ID   = 31598
ELEMENT_SET_NO = 999
REV_AT_EPOCH   = 152
BSTAR          = .47692E-3
MEAN_MOTION_DOT = .5255E-4
MEAN_MOTION_DDOT = 0

CCSDS_OMM_VERS = 2.0
CREATION_DATE  = 
ORIGINATOR     = 

OBJECT_NAME    = COSMOS 2428
OBJECT_ID      = 2007-029A
CENTER_NAME    = EARTH
REF_FRAME      = TEME
TIME_SYSTEM    = UTC
MEAN_ELEMENT_THEORY = SGP/SGP4

EPOCH          = 2025-12-10T02:51:08.480160
MEAN_MOTION    = 14.12888802
ECCENTRICITY   = .0003511
INCLINATION    = 70.9368
RA_OF_ASC_NODE = 31.3829
ARG_OF_PERICENTER = 27.8182
MEAN_ANOMALY   = 332.3126

EPHEMERIS_TYPE = 0
CLASSIFICATION_TYPE = U
NORAD_CAT_ID   = 31792
ELEMENT_SET_NO = 999
REV_AT_EPOCH   = 95144
BSTAR          = .76991E-4
MEAN_MOTION_DOT = .95E-6
MEAN_MOTION_DDOT = 0

CCSDS_OMM_VERS = 2.0
CREATION_DATE  = 
ORIGINATOR     = 

OBJECT_NAME    = SL-16 R/B
OBJECT_ID      = 2007-029B
CENTER_NAME    = EARTH
REF_FRAME      = TEME
TIME_SYSTEM    = UTC
MEAN_ELEMENT_THEORY = SGP/SGP4

EPOCH          = 2025-12-10T03:01:38.781984
MEAN_MOTION    = 14.14814744
ECCENTRICITY   = .0002272
INCLINATION    = 70.9758
RA_OF_ASC_NODE = 0.6522
ARG_OF_PERICENTER = 263.3766
MEAN_ANOMALY   = 154.3740

EPHEMERIS_TYPE = 0
CLASSIFICATION_TYPE = U
NORAD_CAT_ID   = 31793
ELEMENT_SET_NO = 999
REV_AT_EPOCH   = 95270
BSTAR          = -.57736E-4
MEAN_MOTION_DOT = -.159E-5
MEAN_MOTION_DDOT = 0

CCSDS_OMM_VERS = 2.0
CREATION_DATE  = 
ORIGINATOR     = 

OBJECT_NAME    = KORONAS-FOTON
OBJECT_ID      = 2009-003A
CENTER_NAME    = EARTH
REF_FRAME      = TEME
TIME_SYSTEM    = UTC
MEAN_ELEMENT_THEORY = SGP/SGP4

EPOCH          = 2025-12-10T03:46:28.388928
MEAN_MOTION    = 15.41093482
ECCENTRICITY   = .0013108
INCLINATION    = 82.4313
RA_OF_ASC_NODE = 8.7814
ARG_OF_PERICENTER = 116.4927
MEAN_ANOMALY   = 243.7665

EPHEMERIS_TYPE = 0
CLASSIFICATION_TYPE = U
NORAD_CAT_ID   = 33504
ELEMENT_SET_NO = 999
REV_AT_EPOCH   = 93194
BSTAR          = .43156E-3
MEAN_MOTION_DOT = .1795E-3
MEAN_MOTION_DDOT = 0

CCSDS_OMM_VERS = 2.0
CREATION_DATE  = 
ORIGINATOR     = 

OBJECT_NAME    = CZ-2C R/B
OBJECT_ID      = 2011-030B
CENTER_NAME    = EARTH
REF_FRAME      = TEME
TIME_SYSTEM    = UTC
MEAN_ELEMENT_THEORY = SGP/SGP4

EPOCH          = 2025-12-09T19:34:17.857344
MEAN_MOTION    = 14.80887729
ECCENTRICITY   = .0051408
INCLINATION    = 97.8413
RA_OF_ASC_NODE = 297.9867
ARG_OF_PERICENTER = 283.4203
MEAN_ANOMALY   = 95.2768

EPHEMERIS_TYPE = 0
CLASSIFICATION_TYPE = U
NORAD_CAT_ID   = 37731
ELEMENT_SET_NO = 999
REV_AT_EPOCH   = 77679
BSTAR          = .37573E-3
MEAN_MOTION_DOT = .2914E-4
MEAN_MOTION_DDOT = 0

CCSDS_OMM_VERS = 2.0
CREATION_DATE  = 
ORIGINATOR     = 

OBJECT_NAME    = H-2A R/B
OBJECT_ID      = 2012-025E
CENTER_NAME    = EARTH
REF_FRAME      = TEME
TIME_SYSTEM    = UTC
MEAN_ELEMENT_THEORY = SGP/SGP4

EPOCH          = 2025-12-10T03:53:48.151104
MEAN_MOTION    = 14.94422718
ECCENTRICITY   = .0043623
INCLINATION    = 98.4599
RA_OF_ASC_NODE = 299.1936
ARG_OF_PERICENTER = 244.7666
MEAN_ANOMALY   = 114.9027

EPHEMERIS_TYPE = 0
CLASSIFICATION_TYPE = U
NORAD_CAT_ID   = 38341
ELEMENT_SET_NO = 999
REV_AT_EPOCH   = 73484
BSTAR          = .50961E-3
MEAN_MOTION_DOT = .5527E-4
MEAN_MOTION_DDOT = 0

CCSDS_OMM_VERS = 2.0
CREATION_DATE  = 
ORIGINATOR     = 

OBJECT_NAME    = SHIJIAN-16 (SJ-16)
OBJECT_ID      = 2013-057A
CENTER_NAME    = EARTH
REF_FRAME      = TEME
TIME_SYSTEM    = UTC
MEAN_ELEMENT_THEORY = SGP/SGP4

EPOCH          = 2025-12-10T04:31:10.115328
MEAN_MOTION    = 14.91973056
ECCENTRICITY   = .0017515
INCLINATION    = 74.9729
RA_OF_ASC_NODE = 354.4829
ARG_OF_PERICENTER = 325.7640
MEAN_ANOMALY   = 34.2417

EPHEMERIS_TYPE = 0
CLASSIFICATION_TYPE = U
NORAD_CAT_ID   = 39358
ELEMENT_SET_NO = 999
REV_AT_EPOCH   = 65815
BSTAR          = .15966E-3
MEAN_MOTION_DOT = .1593E-4
MEAN_MOTION_DDOT = 0

