ALOS (DAICHI)           
1 28931U 06002A   25343.83556231  .00002541  00000+0  43701-3 0  9990
2 28931  98.1091 295.3432 0001017 112.9419 247.1894 14.69474140 60288
H-2A R/B                
1 28932U 06002B   25343.81227391  .00015932  00000+0  83747-3 0  9993
2 28932  98.2317 118.3217 0054512 186.3408 173.7138 15.14472983 80828
RESURS-DK 1             
1 29228U 06021A   25343.78748044  .00004688  00000+0  27732-3 0  9990
2 29228  69.9336 109.4675 0007519 261.9580  98.0733 15.12136626 73931
CZ-4B R/B               
1 29507U 06046C   25344.12865498  .00007637  00000+0  39756-3 0  9995
2 29507  97.5735  24.2736 0033101 215.8149 144.0864 15.15828586 46470
CZ-2C R/B               
1 31114U 07010B   25344.18241069  .00000290  00000+0  15241-3 0  9993
2 31114  98.3974  96.9620 0058835 193.4541 166.5070 14.20208381967017
COSMO-SKYMED 1          
1 31598U 07023A   25344.17918248  .00005255  00000+0  47692-3 0  9993
2 31598  97.8835 169.5618 0001048  84.7092 275.4248 14.95732222  1524
COSMOS 2428             
1 31792U 07029A   25344.11884815  .00000095  00000+0  76991-4 0  9993
2 31792  70.9368  31.3829 0003511  27.8182 332.3126 14.12888802951446
SL-16 R/B               
1 31793U 07029B   25344.12614331 -.00000159  00000+0 -57736-4 0  9998
2 31793  70.9758   0.6522 0002272 263.3766 154.3740 14.14814744952707
KORONAS-FOTON           
1 33504U 09003A   25344.15727302  .00017950  00000+0  43156-3 0  9995
2 33504  82.4313   8.7814 0013108 116.4927 243.7665 15.41093482931945
CZ-2C R/B               
1 37731U 11030B   25343.81548446  .00002914  00000+0  37573-3 0  9996
2 37731  97.8413 297.9867 0051408 283.4203  95.2768 14.80887729776790
H-2A R/B                
1 38341U 12025E   25344.16236286  .00005527  00000+0  50961-3 0  9993
2 38341  98.4599 299.1936 0043623 244.7666 114.9027 14.94422718734849
SHIJIAN-16 (SJ-16)      
1 39358U 13057A   25344.18831152  .00001593  00000+0  15966-3 0  9998
2 39358  74.9729 354.4829 0017515 325.7640  34.2417 14.91973056658150
